{
    "links": {
        "self": "http://www.neowsapp.com/rest/v1/neo/3648090?api_key=iIulBulltgU6a56xZRHN4H3l9WmuAYTsLGpBGhQ2"
    },
    "id": "3648090",
    "neo_reference_id": "3648090",
    "name": "(2013 RM73)",
    "designation": "2013 RM73",
    "nasa_jpl_url": "http://ssd.jpl.nasa.gov/sbdb.cgi?sstr=3648090",
    "absolute_magnitude_h": 26.8,
    "estimated_diameter": {
        "kilometers": {
            "estimated_diameter_min": 0.0116025908,
            "estimated_diameter_max": 0.0259441818
        },
        "meters": {
            "estimated_diameter_min": 11.6025908209,
            "estimated_diameter_max": 25.9441817907
        },
        "miles": {
            "estimated_diameter_min": 0.0072095135,
            "estimated_diameter_max": 0.0161209622
        },
        "feet": {
            "estimated_diameter_min": 38.066244069,
            "estimated_diameter_max": 85.1187093863
        }
    },
    "is_potentially_hazardous_asteroid": false,
    "close_approach_data": [
        {
            "close_approach_date": "1960-08-31",
            "close_approach_date_full": "1960-Aug-31 17:22",
            "epoch_date_close_approach": -294561480000,
            "relative_velocity": {
                "kilometers_per_second": "14.2161717876",
                "kilometers_per_hour": "51178.2184352696",
                "miles_per_hour": "31800.1546716263"
            },
            "miss_distance": {
                "astronomical": "0.1519540166",
                "lunar": "59.1101124574",
                "kilometers": "22731997.221304642",
                "miles": "14125008.0879903796"
            },
            "orbiting_body": "Earth"
        },
        {
            "close_approach_date": "2001-08-19",
            "close_approach_date_full": "2001-Aug-19 18:16",
            "epoch_date_close_approach": 998244960000,
            "relative_velocity": {
                "kilometers_per_second": "19.9835266415",
                "kilometers_per_hour": "71940.6959094432",
                "miles_per_hour": "44701.1507443982"
            },
            "miss_distance": {
                "astronomical": "0.348630625",
                "lunar": "135.617313125",
                "kilometers": "52154398.91676875",
                "miles": "32407240.74315875"
            },
            "orbiting_body": "Earth"
        },
        {
            "close_approach_date": "2013-09-16",
            "close_approach_date_full": "2013-Sep-16 16:46",
            "epoch_date_close_approach": 1379349960000,
            "relative_velocity": {
                "kilometers_per_second": "10.0801005203",
                "kilometers_per_hour": "36288.3618732258",
                "miles_per_hour": "22548.1768539497"
            },
            "miss_distance": {
                "astronomical": "0.0052344287",
                "lunar": "2.0361927643",
                "kilometers": "783059.384186869",
                "miles": "486570.5387580322"
            },
            "orbiting_body": "Moon"
        },
        {
            "close_approach_date": "2013-09-17",
            "close_approach_date_full": "2013-Sep-17 00:37",
            "epoch_date_close_approach": 1379378220000,
            "relative_velocity": {
                "kilometers_per_second": "9.9005853722",
                "kilometers_per_hour": "35642.1073399277",
                "miles_per_hour": "22146.619419079"
            },
            "miss_distance": {
                "astronomical": "0.0058467998",
                "lunar": "2.2744051222",
                "kilometers": "874668.796396426",
                "miles": "543493.9879296388"
            },
            "orbiting_body": "Earth"
        }
    ],
    "orbital_data": {
        "orbit_id": "7",
        "orbit_determination_date": "2019-07-17 06:09:58",
        "first_observation_date": "2013-09-09",
        "last_observation_date": "2013-09-15",
        "data_arc_in_days": 6,
        "observations_used": 62,
        "orbit_uncertainty": "7",
        "minimum_orbit_intersection": ".00580907",
        "jupiter_tisserand_invariant": "3.927",
        "epoch_osculation": "2459000.5",
        "eccentricity": ".4863713713704071",
        "semi_major_axis": "1.790580971436701",
        "inclination": "5.237290850370663",
        "ascending_node_longitude": "351.210800393415",
        "orbital_period": "875.1638582549598",
        "perihelion_distance": ".9196936488092768",
        "perihelion_argument": "45.94884474757889",
        "aphelion_distance": "2.661468294064124",
        "perihelion_time": "2459211.152571526641",
        "mean_anomaly": "273.347740501073",
        "mean_motion": ".411351539033873",
        "equinox": "J2000",
        "orbit_class": {
            "orbit_class_type": "APO",
            "orbit_class_description": "Near-Earth asteroid orbits which cross the Earth’s orbit similar to that of 1862 Apollo",
            "orbit_class_range": "a (semi-major axis) > 1.0 AU; q (perihelion) < 1.017 AU"
        }
    },
    "is_sentry_object": false
}